{
  "type": "FeatureCollection",
  "features": [
    {
      "type": "Feature",
      "properties": {
        "norad_id": 66615,
        "name": "STARLINK-35988",
        "group": "last-30-days",
        "lat": 35.30259157503554,
        "lon": -104.72687195891767,
        "alt_km": 407.4922227399784,
        "timestamp": "2025-12-10T11:33:52.172891+00:00",
        "meta_object_name": "STARLINK-35988",
        "meta_object_id": "2025-270AD",
        "meta_epoch": "2025-12-10T04:00:01.998720",
        "meta_mean_motion": 15.52907932,
        "meta_eccentricity": 0.0001443,
        "meta_inclination": 42.9997,
        "meta_ra_of_asc_node": 207.6659,
        "meta_arg_of_pericenter": 269.1611,
        "meta_mean_anomaly": 185.5556,
        "meta_ephemeris_type": 0,
        "meta_classification_type": "U",
        "meta_norad_cat_id": 66615,
        "meta_element_set_no": 999,
        "meta_rev_at_epoch": 382,
        "meta_bstar": -0.033546,
        "meta_mean_motion_dot": -0.01887867,
        "meta_mean_motion_ddot": 0,
        "tle_line1": "1 66615U 25270AD  25344.16668980 -.01887867  00000+0 -33546-1 0  9990",
        "tle_line2": "2 66615  42.9997 207.6659 0001443 269.1611 185.5556 15.52907932  3820"
      },
      "geometry": {
        "type": "Point",
        "coordinates": [
          -104.72687195891767,
          35.30259157503554
        ]
      }
    },
    {
      "type": "Feature",
      "properties": {
        "norad_id": 66616,
        "name": "STARLINK-35391",
        "group": "last-30-days",
        "lat": 36.92773714422435,
        "lon": -100.43159404070715,
        "alt_km": 407.3154757351249,
        "timestamp": "2025-12-10T11:33:52.172901+00:00",
        "meta_object_name": "STARLINK-35391",
        "meta_object_id": "2025-270AE",
        "meta_epoch": "2025-12-10T04:00:01.998720",
        "meta_mean_motion": 15.52904277,
        "meta_eccentricity": 0.0001523,
        "meta_inclination": 42.9997,
        "meta_ra_of_asc_node": 207.6562,
        "meta_arg_of_pericenter": 271.9318,
        "meta_mean_anomaly": 186.6251,
        "meta_ephemeris_type": 0,
        "meta_classification_type": "U",
        "meta_norad_cat_id": 66616,
        "meta_element_set_no": 999,
        "meta_rev_at_epoch": 409,
        "meta_bstar": -0.033685,
        "meta_mean_motion_dot": -0.01928723,
        "meta_mean_motion_ddot": 0,
        "tle_line1": "1 66616U 25270AE  25344.16668980 -.01928723  00000+0 -33685-1 0  9992",
        "tle_line2": "2 66616  42.9997 207.6562 0001523 271.9318 186.6251 15.52904277  4091"
      },
      "geometry": {
        "type": "Point",
        "coordinates": [
          -100.43159404070715,
          36.92773714422435
        ]
      }
    },
    {
      "type": "Feature",
      "properties": {
        "norad_id": 66617,
        "name": "STARLINK-35940",
        "group": "last-30-days",
        "lat": 33.28358472586519,
        "lon": -132.3986791543901,
        "alt_km": 383.73859723065107,
        "timestamp": "2025-12-10T11:33:52.172913+00:00",
        "meta_object_name": "STARLINK-35940",
        "meta_object_id": "2025-271A",
        "meta_epoch": "2025-12-10T04:00:01.998720",
        "meta_mean_motion": 15.61182518,
        "meta_eccentricity": 9.22e-05,
        "meta_inclination": 53.1594,
        "meta_ra_of_asc_node": 199.6501,
        "meta_arg_of_pericenter": 86.7783,
        "meta_mean_anomaly": 345.0955,
        "meta_ephemeris_type": 0,
        "meta_classification_type": "U",
        "meta_norad_cat_id": 66617,
        "meta_element_set_no": 999,
        "meta_rev_at_epoch": 383,
        "meta_bstar": -0.026807,
        "meta_mean_motion_dot": -0.02024797,
        "meta_mean_motion_ddot": 0,
        "tle_line1": "1 66617U 25271A   25344.16668980 -.02024797  00000+0 -26807-1 0  9991",
        "tle_line2": "2 66617  53.1594 199.6501 0000922  86.7783 345.0955 15.61182518  3831"
      },
      "geometry": {
        "type": "Point",
        "coordinates": [
          -132.3986791543901,
          33.28358472586519
        ]
      }
    },
    {
      "type": "Feature",
      "properties": {
        "norad_id": 66618,
        "name": "STARLINK-35970",
        "group": "last-30-days",
        "lat": 52.61861094421847,
        "lon": -60.890143530965574,
        "alt_km": 380.53584016277546,
        "timestamp": "2025-12-10T11:33:52.172925+00:00",
        "meta_object_name": "STARLINK-35970",
        "meta_object_id": "2025-271B",
        "meta_epoch": "2025-12-10T04:00:01.998720",
        "meta_mean_motion": 15.6116721,
        "meta_eccentricity": 0.0001125,
        "meta_inclination": 53.1596,
        "meta_ra_of_asc_node": 199.5374,
        "meta_arg_of_pericenter": 80.4241,
        "meta_mean_anomaly": 44.7763,
        "meta_ephemeris_type": 0,
        "meta_classification_type": "U",
        "meta_norad_cat_id": 66618,
        "meta_element_set_no": 999,
        "meta_rev_at_epoch": 383,
        "meta_bstar": -0.026502,
        "meta_mean_motion_dot": -0.02003724,
        "meta_mean_motion_ddot": 0,
        "tle_line1": "1 66618U 25271B   25344.16668980 -.02003724  00000+0 -26502-1 0  9991",
        "tle_line2": "2 66618  53.1596 199.5374 0001125  80.4241  44.7763 15.61167210  3839"
      },
      "geometry": {
        "type": "Point",
        "coordinates": [
          -60.890143530965574,
          52.61861094421847
        ]
      }
    },
    {
      "type": "Feature",
      "properties": {
        "norad_id": 66619,
        "name": "STARLINK-35951",
        "group": "last-30-days",
        "lat": 38.43592700790142,
        "lon": -125.3872371575782,
        "alt_km": 382.9034311239948,
        "timestamp": "2025-12-10T11:33:52.172935+00:00",
        "meta_object_name": "STARLINK-35951",
        "meta_object_id": "2025-271C",
        "meta_epoch": "2025-12-10T04:00:01.998720",
        "meta_mean_motion": 15.61173039,
        "meta_eccentricity": 8.57e-05,
        "meta_inclination": 53.1595,
        "meta_ra_of_asc_node": 199.6328,
        "meta_arg_of_pericenter": 86.8438,
        "meta_mean_anomaly": 352.7002,
        "meta_ephemeris_type": 0,
        "meta_classification_type": "U",
        "meta_norad_cat_id": 66619,
        "meta_element_set_no": 999,
        "meta_rev_at_epoch": 383,
        "meta_bstar": -0.026631,
        "meta_mean_motion_dot": -0.02012455,
        "meta_mean_motion_ddot": 0,
        "tle_line1": "1 66619U 25271C   25344.16668980 -.02012455  00000+0 -26631-1 0  9996",
        "tle_line2": "2 66619  53.1595 199.6328 0000857  86.8438 352.7002 15.61173039  3832"
      },
      "geometry": {
        "type": "Point",
        "coordinates": [
          -125.3872371575782,
          38.43592700790142
        ]
      }
    },
    {
      "type": "Feature",
      "properties": {
        "norad_id": 66620,
        "name": "STARLINK-35936",
        "group": "last-30-days",
        "lat": 34.607336495305,
        "lon": -130.73191840854705,
        "alt_km": 383.4957204621678,
        "timestamp": "2025-12-10T11:33:52.172946+00:00",
        "meta_object_name": "STARLINK-35936",
        "meta_object_id": "2025-271D",
        "meta_epoch": "2025-12-10T04:00:01.998720",
        "meta_mean_motion": 15.61172954,
        "meta_eccentricity": 9.11e-05,
        "meta_inclination": 53.1596,
        "meta_ra_of_asc_node": 199.6462,
        "meta_arg_of_pericenter": 84.8169,
        "meta_mean_anomaly": 348.9738,
        "meta_ephemeris_type": 0,
        "meta_classification_type": "U",
        "meta_norad_cat_id": 66620,
        "meta_element_set_no": 999,
        "meta_rev_at_epoch": 383,
        "meta_bstar": -0.026566,
        "meta_mean_motion_dot": -0.02008197,
        "meta_mean_motion_ddot": 0,
        "tle_line1": "1 66620U 25271D   25344.16668980 -.02008197  00000+0 -26566-1 0  9993",
        "tle_line2": "2 66620  53.1596 199.6462 0000911  84.8169 348.9738 15.61172954  3832"
      },
      "geometry": {
        "type": "Point",
        "coordinates": [
          -130.73191840854705,
          34.607336495305
        ]
      }
    },
    {
      "type": "Feature",
      "properties": {
        "norad_id": 66621,
        "name": "STARLINK-35847",
        "group": "last-30-days",
        "lat": 51.934738754175484,
        "lon": -55.21215796420248,
        "alt_km": 380.6384161001988,
        "timestamp": "2025-12-10T11:33:52.172955+00:00",
        "meta_object_name": "STARLINK-35847",
        "meta_object_id": "2025-271E",
        "meta_epoch": "2025-12-10T04:00:01.998720",
        "meta_mean_motion": 15.61170471,
        "meta_eccentricity": 0.0001108,
        "meta_inclination": 53.1597,
        "meta_ra_of_asc_node": 199.5298,
        "meta_arg_of_pericenter": 85.7208,
        "meta_mean_anomaly": 43.0172,
        "meta_ephemeris_type": 0,
        "meta_classification_type": "U",
        "meta_norad_cat_id": 66621,
        "meta_element_set_no": 999,
        "meta_rev_at_epoch": 383,
        "meta_bstar": -0.026581,
        "meta_mean_motion_dot": -0.02009155,
        "meta_mean_motion_ddot": 0,
        "tle_line1": "1 66621U 25271E   25344.16668980 -.02009155  00000+0 -26581-1 0  9996",
        "tle_line2": "2 66621  53.1597 199.5298 0001108  85.7208  43.0172 15.61170471  3830"
      },
      "geometry": {
        "type": "Point",
        "coordinates": [
          -55.21215796420248,
          51.934738754175484
        ]
      }
    }
  ]
}